{"fetched_at":"2026-07-15T06:35:39.467Z","source":"https://celestrak.org/NORAD/elements/gp.php?GROUP=qianfan&FORMAT=JSON","constellation":"qianfan","records":[{"OBJECT_NAME":"QIANFAN-81","OBJECT_ID":"2025-046J","EPOCH":"2026-07-14T21:40:20.850240","CLASSIFICATION_TYPE":"U","MEAN_MOTION":13.51024011,"ECCENTRICITY":0.00140388,"INCLINATION":88.9724,"RA_OF_ASC_NODE":297.6559,"ARG_OF_PERICENTER":214.3582,"MEAN_ANOMALY":145.6663,"EPHEMERIS_TYPE":0,"NORAD_CAT_ID":63167,"ELEMENT_SET_NO":999,"REV_AT_EPOCH":7640,"BSTAR":0.00014993109,"MEAN_MOTION_DOT":0.00000109,"MEAN_MOTION_DDOT":0},{"OBJECT_NAME":"QIANFAN-82","OBJECT_ID":"2025-046K","EPOCH":"2026-07-14T22:27:47.727648","CLASSIFICATION_TYPE":"U","MEAN_MOTION":13.5101846,"ECCENTRICITY":0.00116631,"INCLINATION":88.9724,"RA_OF_ASC_NODE":297.6966,"ARG_OF_PERICENTER":220.0826,"MEAN_ANOMALY":139.9466,"EPHEMERIS_TYPE":0,"NORAD_CAT_ID":63168,"ELEMENT_SET_NO":999,"REV_AT_EPOCH":7639,"BSTAR":0.00015062231,"MEAN_MOTION_DOT":0.00000109,"MEAN_MOTION_DDOT":0},{"OBJECT_NAME":"QIANFAN-83","OBJECT_ID":"2025-046L","EPOCH":"2026-07-14T22:06:35.225856","CLASSIFICATION_TYPE":"U","MEAN_MOTION":13.62050886,"ECCENTRICITY":0.00140153,"INCLINATION":88.9725,"RA_OF_ASC_NODE":297.0527,"ARG_OF_PERICENTER":193.2915,"MEAN_ANOMALY":166.7875,"EPHEMERIS_TYPE":0,"NORAD_CAT_ID":63169,"ELEMENT_SET_NO":999,"REV_AT_EPOCH":7675,"BSTAR":0.00014405701,"MEAN_MOTION_DOT":0.00000123,"MEAN_MOTION_DDOT":0},{"OBJECT_NAME":"QIANFAN-84","OBJECT_ID":"2025-046M","EPOCH":"2026-07-14T21:22:57.389664","CLASSIFICATION_TYPE":"U","MEAN_MOTION":13.51044064,"ECCENTRICITY":0.00148225,"INCLINATION":88.9724,"RA_OF_ASC_NODE":297.8339,"ARG_OF_PERICENTER":218.3595,"MEAN_ANOMALY":141.6504,"EPHEMERIS_TYPE":0,"NORAD_CAT_ID":63170,"ELEMENT_SET_NO":999,"REV_AT_EPOCH":7631,"BSTAR":0.00002503408,"MEAN_MOTION_DOT":2.8e-7,"MEAN_MOTION_DDOT":0},{"OBJECT_NAME":"QIANFAN-85","OBJECT_ID":"2025-046N","EPOCH":"2026-07-14T21:16:40.487808","CLASSIFICATION_TYPE":"U","MEAN_MOTION":13.51016222,"ECCENTRICITY":0.00122056,"INCLINATION":88.9723,"RA_OF_ASC_NODE":297.7044,"ARG_OF_PERICENTER":219.3182,"MEAN_ANOMALY":140.7084,"EPHEMERIS_TYPE":0,"NORAD_CAT_ID":63171,"ELEMENT_SET_NO":999,"REV_AT_EPOCH":7638,"BSTAR":0.00013217921,"MEAN_MOTION_DOT":9.7e-7,"MEAN_MOTION_DDOT":0},{"OBJECT_NAME":"QIANFAN-86","OBJECT_ID":"2025-046P","EPOCH":"2026-07-14T21:28:33.972096","CLASSIFICATION_TYPE":"U","MEAN_MOTION":13.5102362,"ECCENTRICITY":0.00099067,"INCLINATION":88.9726,"RA_OF_ASC_NODE":297.5708,"ARG_OF_PERICENTER":221.9502,"MEAN_ANOMALY":138.0892,"EPHEMERIS_TYPE":0,"NORAD_CAT_ID":63172,"ELEMENT_SET_NO":999,"REV_AT_EPOCH":7646,"BSTAR":0.00010910961,"MEAN_MOTION_DOT":8.2e-7,"MEAN_MOTION_DDOT":0},{"OBJECT_NAME":"QIANFAN-87","OBJECT_ID":"2025-046Q","EPOCH":"2026-07-14T22:33:50.211072","CLASSIFICATION_TYPE":"U","MEAN_MOTION":13.51009268,"ECCENTRICITY":0.001063,"INCLINATION":88.9722,"RA_OF_ASC_NODE":297.6697,"ARG_OF_PERICENTER":217.0386,"MEAN_ANOMALY":143.0032,"EPHEMERIS_TYPE":0,"NORAD_CAT_ID":63173,"ELEMENT_SET_NO":999,"REV_AT_EPOCH":7640,"BSTAR":0.00016334346,"MEAN_MOTION_DOT":0.00000118,"MEAN_MOTION_DDOT":0},{"OBJECT_NAME":"QIANFAN-88","OBJECT_ID":"2025-046R","EPOCH":"2026-07-14T21:10:53.060448","CLASSIFICATION_TYPE":"U","MEAN_MOTION":13.51016947,"ECCENTRICITY":0.00107432,"INCLINATION":88.9724,"RA_OF_ASC_NODE":297.6356,"ARG_OF_PERICENTER":226.841,"MEAN_ANOMALY":133.1844,"EPHEMERIS_TYPE":0,"NORAD_CAT_ID":63174,"ELEMENT_SET_NO":999,"REV_AT_EPOCH":7642,"BSTAR":0.00013669255,"MEAN_MOTION_DOT":0.000001,"MEAN_MOTION_DDOT":0},{"OBJECT_NAME":"QIANFAN-89","OBJECT_ID":"2025-046S","EPOCH":"2026-07-14T22:04:03.465120","CLASSIFICATION_TYPE":"U","MEAN_MOTION":13.51024073,"ECCENTRICITY":0.00156431,"INCLINATION":88.9724,"RA_OF_ASC_NODE":297.8206,"ARG_OF_PERICENTER":219.178,"MEAN_ANOMALY":140.824,"EPHEMERIS_TYPE":0,"NORAD_CAT_ID":63175,"ELEMENT_SET_NO":999,"REV_AT_EPOCH":7632,"BSTAR":0.00013160554,"MEAN_MOTION_DOT":9.7e-7,"MEAN_MOTION_DDOT":0},{"OBJECT_NAME":"QIANFAN-90","OBJECT_ID":"2025-046T","EPOCH":"2026-07-14T20:58:52.506048","CLASSIFICATION_TYPE":"U","MEAN_MOTION":13.51016416,"ECCENTRICITY":0.00126364,"INCLINATION":88.9725,"RA_OF_ASC_NODE":297.7983,"ARG_OF_PERICENTER":216.0019,"MEAN_ANOMALY":144.0282,"EPHEMERIS_TYPE":0,"NORAD_CAT_ID":63176,"ELEMENT_SET_NO":999,"REV_AT_EPOCH":7633,"BSTAR":0.0001652067,"MEAN_MOTION_DOT":0.00000119,"MEAN_MOTION_DDOT":0},{"OBJECT_NAME":"QIANFAN-91","OBJECT_ID":"2025-233A","EPOCH":"2026-07-14T21:45:37.831104","CLASSIFICATION_TYPE":"U","MEAN_MOTION":13.51015116,"ECCENTRICITY":0.00020379,"INCLINATION":88.9982,"RA_OF_ASC_NODE":40.3854,"ARG_OF_PERICENTER":94.1934,"MEAN_ANOMALY":265.945,"EPHEMERIS_TYPE":0,"NORAD_CAT_ID":66033,"ELEMENT_SET_NO":999,"REV_AT_EPOCH":3692,"BSTAR":0.000078825865,"MEAN_MOTION_DOT":6.3e-7,"MEAN_MOTION_DDOT":0},{"OBJECT_NAME":"QIANFAN-92","OBJECT_ID":"2025-233B","EPOCH":"2026-07-14T14:50:49.494624","CLASSIFICATION_TYPE":"U","MEAN_MOTION":13.510134,"ECCENTRICITY":0.00019647,"INCLINATION":88.9964,"RA_OF_ASC_NODE":40.3815,"ARG_OF_PERICENTER":88.3287,"MEAN_ANOMALY":271.809,"EPHEMERIS_TYPE":0,"NORAD_CAT_ID":66034,"ELEMENT_SET_NO":999,"REV_AT_EPOCH":3688,"BSTAR":0.000074754207,"MEAN_MOTION_DOT":6e-7,"MEAN_MOTION_DDOT":0},{"OBJECT_NAME":"QIANFAN-93","OBJECT_ID":"2025-233C","EPOCH":"2026-07-14T15:02:39.980832","CLASSIFICATION_TYPE":"U","MEAN_MOTION":13.51016826,"ECCENTRICITY":0.00020063,"INCLINATION":88.9991,"RA_OF_ASC_NODE":40.4401,"ARG_OF_PERICENTER":93.032,"MEAN_ANOMALY":267.106,"EPHEMERIS_TYPE":0,"NORAD_CAT_ID":66035,"ELEMENT_SET_NO":999,"REV_AT_EPOCH":3688,"BSTAR":0.000069410508,"MEAN_MOTION_DOT":5.7e-7,"MEAN_MOTION_DDOT":0},{"OBJECT_NAME":"QIANFAN-94","OBJECT_ID":"2025-233D","EPOCH":"2026-07-14T14:44:55.887072","CLASSIFICATION_TYPE":"U","MEAN_MOTION":13.51015745,"ECCENTRICITY":0.0002078,"INCLINATION":88.9988,"RA_OF_ASC_NODE":40.3437,"ARG_OF_PERICENTER":88.6762,"MEAN_ANOMALY":271.4627,"EPHEMERIS_TYPE":0,"NORAD_CAT_ID":66036,"ELEMENT_SET_NO":999,"REV_AT_EPOCH":3693,"BSTAR":0.00007729,"MEAN_MOTION_DOT":6.2e-7,"MEAN_MOTION_DDOT":0},{"OBJECT_NAME":"QIANFAN-95","OBJECT_ID":"2025-233E","EPOCH":"2026-07-14T14:56:48.058080","CLASSIFICATION_TYPE":"U","MEAN_MOTION":13.51016726,"ECCENTRICITY":0.00021765,"INCLINATION":88.9985,"RA_OF_ASC_NODE":39.8858,"ARG_OF_PERICENTER":93.9346,"MEAN_ANOMALY":266.2054,"EPHEMERIS_TYPE":0,"NORAD_CAT_ID":66037,"ELEMENT_SET_NO":999,"REV_AT_EPOCH":3718,"BSTAR":0.000076307637,"MEAN_MOTION_DOT":6.1e-7,"MEAN_MOTION_DDOT":0},{"OBJECT_NAME":"QIANFAN-96","OBJECT_ID":"2025-233F","EPOCH":"2026-07-14T22:38:57.650784","CLASSIFICATION_TYPE":"U","MEAN_MOTION":13.51015655,"ECCENTRICITY":0.00020569,"INCLINATION":88.9984,"RA_OF_ASC_NODE":40.396,"ARG_OF_PERICENTER":95.9872,"MEAN_ANOMALY":264.1514,"EPHEMERIS_TYPE":0,"NORAD_CAT_ID":66038,"ELEMENT_SET_NO":999,"REV_AT_EPOCH":3692,"BSTAR":0.000077039743,"MEAN_MOTION_DOT":6.2e-7,"MEAN_MOTION_DDOT":0}]}
