QIANFAN-81              
1 63167U 25046J   26195.90301910  .00000109  00000+0  14993-3 0  9994
2 63167  88.9724 297.6559 0014038 214.3582 145.6663 13.51024011 76403
QIANFAN-82              
1 63168U 25046K   26195.93596907  .00000109  00000+0  15062-3 0  9998
2 63168  88.9724 297.6966 0011663 220.0826 139.9466 13.51018460 76398
QIANFAN-83              
1 63169U 25046L   26195.92124104  .00000123  00000+0  14406-3 0  9991
2 63169  88.9725 297.0527 0014015 193.2915 166.7875 13.62050886 76753
QIANFAN-84              
1 63170U 25046M   26195.89094201  .00000028  00000+0  25034-4 0  9997
2 63170  88.9724 297.8339 0014822 218.3595 141.6504 13.51044064 76314
QIANFAN-85              
1 63171U 25046N   26195.88657972  .00000097  00000+0  13218-3 0  9993
2 63171  88.9723 297.7044 0012205 219.3182 140.7084 13.51016222 76387
QIANFAN-86              
1 63172U 25046P   26195.89483764  .00000082  00000+0  10911-3 0  9992
2 63172  88.9726 297.5708 0009906 221.9502 138.0892 13.51023620 76461
QIANFAN-87              
1 63173U 25046Q   26195.94016448  .00000118  00000+0  16334-3 0  9995
2 63173  88.9722 297.6697 0010630 217.0386 143.0032 13.51009268 76406
QIANFAN-88              
1 63174U 25046R   26195.88255857  .00000100  00000+0  13669-3 0  9997
2 63174  88.9724 297.6356 0010743 226.8410 133.1844 13.51016947 76427
QIANFAN-89              
1 63175U 25046S   26195.91948455  .00000097  00000+0  13161-3 0  9997
2 63175  88.9724 297.8206 0015643 219.1780 140.8240 13.51024073 76326
QIANFAN-90              
1 63176U 25046T   26195.87421882  .00000119  00000+0  16521-3 0  9991
2 63176  88.9725 297.7983 0012636 216.0019 144.0282 13.51016416 76334
QIANFAN-91              
1 66033U 25233A   26195.90668786  .00000063  00000+0  78826-4 0  9999
2 66033  88.9982  40.3854 0002037  94.1934 265.9450 13.51015116 36925
QIANFAN-92              
1 66034U 25233B   26195.61862841  .00000060  00000+0  74754-4 0  9999
2 66034  88.9964  40.3815 0001964  88.3287 271.8090 13.51013400 36882
QIANFAN-93              
1 66035U 25233C   26195.62685163  .00000057  00000+0  69411-4 0  9991
2 66035  88.9991  40.4401 0002006  93.0320 267.1060 13.51016826 36884
QIANFAN-94              
1 66036U 25233D   26195.61453573  .00000062  00000+0  77290-4 0  9999
2 66036  88.9988  40.3437 0002078  88.6762 271.4627 13.51015745 36930
QIANFAN-95              
1 66037U 25233E   26195.62277845  .00000061  00000+0  76308-4 0  9995
2 66037  88.9985  39.8858 0002176  93.9346 266.2054 13.51016726 37188
QIANFAN-96              
1 66038U 25233F   26195.94372281  .00000062  00000+0  77040-4 0  9996
2 66038  88.9984  40.3960 0002056  95.9872 264.1514 13.51015655 36921
